<!DOCTYPE html PUBLIC "-//W3C//DTD XHTML 1.0 Transitional//EN" "http://www.w3.org/TR/xhtml1/DTD/xhtml1-transitional.dtd"> 
<!-- Generated by rfcdiff 1.41: rfcdiff  --> 
<!-- <!DOCTYPE html PUBLIC "-//W3C//DTD HTML 4.01 Transitional" > -->
<!-- System: Linux fomalhaut.local 3.13.0-38-generic #65-Ubuntu SMP Thu Oct 9 11:36:50 UTC 2014 x86_64 x86_64 x86_64 GNU/Linux --> 
<!-- Using awk: /usr/bin/gawk: GNU Awk 4.0.1 --> 
<!-- Using diff: /usr/bin/diff: diff (GNU diffutils) 3.3 --> 
<!-- Using wdiff: /usr/bin/wdiff: wdiff (GNU wdiff) 1.2.1 --> 
<html xmlns="http://www.w3.org/1999/xhtml" xml:lang="en" lang="en"> 
<head> 
  <meta http-equiv="Content-Type" content="text/html; charset=utf-8" /> 
  <meta http-equiv="Content-Style-Type" content="text/css" /> 
  <title>Diff: ssystem.ini - ssystem.ini</title> 
  <style type="text/css"> 
    body    { font-size:16px; margin: 0.4ex; margin-right: auto; } 
    tr      { } 
    td      { white-space: pre; font-family: Consolas, "DejaVu Sans Mono", "Droid Sans Mono", Monaco, Monospace; vertical-align: top; font-size: 0.86em;} 
    th      { font-size: 0.86em; } 
    .small  { font-size: 0.6em; font-style: italic; font-family: Verdana, Helvetica, sans-serif; } 
    .left   { background-color: #EEE; } 
    .right  { background-color: #FFF; } 
    .diff   { background-color: #CCF; } 
    .lblock { background-color: #BFB; } 
    .rblock { background-color: #FF8; } 
    .insert { background-color: #8FF; } 
    .delete { background-color: #ACF; } 
    .void   { background-color: #FFB; } 
    .cont   { background-color: #EEE; } 
    .linebr { background-color: #AAA; } 
    .lineno { color: red; background-color: #FFF; font-size: 0.7em; text-align: right; padding: 0 2px; } 
    .elipsis{ background-color: #AAA; } 
    .left .cont { background-color: #DDD; } 
    .right .cont { background-color: #EEE; } 
    .lblock .cont { background-color: #9D9; } 
    .rblock .cont { background-color: #DD6; } 
    .insert .cont { background-color: #0DD; } 
    .delete .cont { background-color: #8AD; } 
    .stats, .stats td, .stats th { background-color: #EEE; padding: 2px 0; } 
  </style> 
</head> 
<body > 
  <table border="0" cellpadding="0" cellspacing="0"> 
  <tr bgcolor="orange"><th></th><th>&nbsp;ssystem.ini&nbsp;</th><th> </th><th>&nbsp;ssystem.ini&nbsp;</th><th></th></tr> 
      <tr><td class="lineno"></td><td class="left"></td><td> </td><td class="right"></td><td class="lineno"></td></tr>
      <tr bgcolor="gray" ><td></td><th><a name="part-l1" /><small>skipping to change at</small><em> line 275</em></th><th> </th><th><a name="part-r1" /><small>skipping to change at</small><em> line 275</em></th><td></td></tr>
      <tr><td class="lineno" valign="top"></td><td class="left">tex_map = lune.png</td><td> </td><td class="right">tex_map = lune.png</td><td class="lineno" valign="top"></td></tr>
      <tr><td class="lineno" valign="top"></td><td class="left">tex_halo = star16x16.png</td><td> </td><td class="right">tex_halo = star16x16.png</td><td class="lineno" valign="top"></td></tr>
      <tr><td class="lineno" valign="top"></td><td class="left">lighting = true</td><td> </td><td class="right">lighting = true</td><td class="lineno" valign="top"></td></tr>
      <tr><td class="lineno" valign="top"></td><td class="left">albedo = 0.03</td><td> </td><td class="right">albedo = 0.03</td><td class="lineno" valign="top"></td></tr>
      <tr><td class="lineno" valign="top"></td><td class="left">rot_periode = 0.4</td><td> </td><td class="right">rot_periode = 0.4</td><td class="lineno" valign="top"></td></tr>
      <tr><td class="lineno" valign="top"></td><td class="left">rot_rotation_offset = 14.9</td><td> </td><td class="right">rot_rotation_offset = 14.9</td><td class="lineno" valign="top"></td></tr>
      <tr><td class="lineno" valign="top"></td><td class="left">rot_obliquity = 15.5</td><td> </td><td class="right">rot_obliquity = 15.5</td><td class="lineno" valign="top"></td></tr>
      <tr><td class="lineno" valign="top"></td><td class="left">rot_equator_ascending_node = 213.7</td><td> </td><td class="right">rot_equator_ascending_node = 213.7</td><td class="lineno" valign="top"></td></tr>
      <tr><td class="lineno" valign="top"></td><td class="left">coord_func = ell_orbit</td><td> </td><td class="right">coord_func = ell_orbit</td><td class="lineno" valign="top"></td></tr>
      <tr><td class="lineno" valign="top"></td><td class="left">orbit_Epoch = 2454619.50000</td><td> </td><td class="right">orbit_Epoch = 2454619.50000</td><td class="lineno" valign="top"></td></tr>
      <tr><td><a name="diff0001" /></td></tr>
      <tr><td class="lineno" valign="top"></td><td class="lblock">orbit_Period = <span class="delete">0.0248</span>3161934941932</td><td> </td><td class="rblock">orbit_Period = <span class="insert">248.</span>3161934941932</td><td class="lineno" valign="top"></td></tr>
      <tr><td class="lineno" valign="top"></td><td class="left">orbit_visualization_period = 248.3161934941932</td><td> </td><td class="right">orbit_visualization_period = 248.3161934941932</td><td class="lineno" valign="top"></td></tr>
      <tr><td class="lineno" valign="top"></td><td class="left">orbit_SemiMajorAxis = 11388576.13393731</td><td> </td><td class="right">orbit_SemiMajorAxis = 11388576.13393731</td><td class="lineno" valign="top"></td></tr>
      <tr><td class="lineno" valign="top"></td><td class="left">orbit_Eccentricity = 0.1341186732710830</td><td> </td><td class="right">orbit_Eccentricity = 0.1341186732710830</td><td class="lineno" valign="top"></td></tr>
      <tr><td class="lineno" valign="top"></td><td class="left">orbit_Inclination = 29.52734924407240</td><td> </td><td class="right">orbit_Inclination = 29.52734924407240</td><td class="lineno" valign="top"></td></tr>
      <tr><td class="lineno" valign="top"></td><td class="left">orbit_AscendingNode = 62.74369092219344</td><td> </td><td class="right">orbit_AscendingNode = 62.74369092219344</td><td class="lineno" valign="top"></td></tr>
      <tr><td class="lineno" valign="top"></td><td class="left">orbit_LongOfPericenter = 48.3391873600156000</td><td> </td><td class="right">orbit_LongOfPericenter = 48.3391873600156000</td><td class="lineno" valign="top"></td></tr>
      <tr><td class="lineno" valign="top"></td><td class="left">orbit_MeanLongitude = 202.0757439998000000</td><td> </td><td class="right">orbit_MeanLongitude = 202.0757439998000000</td><td class="lineno" valign="top"></td></tr>
      <tr><td class="lineno" valign="top"></td><td class="left"></td><td> </td><td class="right"></td><td class="lineno" valign="top"></td></tr>
      <tr><td class="lineno" valign="top"></td><td class="left">[elara]</td><td> </td><td class="right">[elara]</td><td class="lineno" valign="top"></td></tr>
      <tr><td class="lineno" valign="top"></td><td class="left">name = Elara</td><td> </td><td class="right">name = Elara</td><td class="lineno" valign="top"></td></tr>
      <tr><td class="lineno"></td><td class="left"></td><td> </td><td class="right"></td><td class="lineno"></td></tr>
      <tr bgcolor="gray" ><td></td><th><a name="part-l2" /><small>skipping to change at</small><em> line 700</em></th><th> </th><th><a name="part-r2" /><small>skipping to change at</small><em> line 700</em></th><td></td></tr>
      <tr><td class="lineno" valign="top"></td><td class="left">parent = Sun</td><td> </td><td class="right">parent = Sun</td><td class="lineno" valign="top"></td></tr>
      <tr><td class="lineno" valign="top"></td><td class="left">radius = 25559</td><td> </td><td class="right">radius = 25559</td><td class="lineno" valign="top"></td></tr>
      <tr><td class="lineno" valign="top"></td><td class="left">oblateness = 0.022927</td><td> </td><td class="right">oblateness = 0.022927</td><td class="lineno" valign="top"></td></tr>
      <tr><td class="lineno" valign="top"></td><td class="left">halo = true</td><td> </td><td class="right">halo = true</td><td class="lineno" valign="top"></td></tr>
      <tr><td class="lineno" valign="top"></td><td class="left">color = 0.75,0.9,1.0</td><td> </td><td class="right">color = 0.75,0.9,1.0</td><td class="lineno" valign="top"></td></tr>
      <tr><td class="lineno" valign="top"></td><td class="left">tex_map = uranus.png</td><td> </td><td class="right">tex_map = uranus.png</td><td class="lineno" valign="top"></td></tr>
      <tr><td class="lineno" valign="top"></td><td class="left">tex_halo = star16x16.png</td><td> </td><td class="right">tex_halo = star16x16.png</td><td class="lineno" valign="top"></td></tr>
      <tr><td class="lineno" valign="top"></td><td class="left">coord_func = uranus_special</td><td> </td><td class="right">coord_func = uranus_special</td><td class="lineno" valign="top"></td></tr>
      <tr><td class="lineno" valign="top"></td><td class="left">lighting = true</td><td> </td><td class="right">lighting = true</td><td class="lineno" valign="top"></td></tr>
      <tr><td class="lineno" valign="top"></td><td class="left">albedo = 0.66</td><td> </td><td class="right">albedo = 0.66</td><td class="lineno" valign="top"></td></tr>
      <tr><td><a name="diff0002" /></td></tr>
      <tr><td class="lineno" valign="top"></td><td class="lblock"></td><td> </td><td class="rblock"><span class="insert">rings = true</span></td><td class="lineno" valign="top"></td></tr>
      <tr><td class="lineno" valign="top"></td><td class="lblock"></td><td> </td><td class="rblock"><span class="insert">ring_outer_size = 97700</span></td><td class="lineno" valign="top"></td></tr>
      <tr><td class="lineno" valign="top"></td><td class="lblock"></td><td> </td><td class="rblock"><span class="insert">ring_inner_size = 26840</span></td><td class="lineno" valign="top"></td></tr>
      <tr><td class="lineno" valign="top"></td><td class="lblock"></td><td> </td><td class="rblock"><span class="insert">tex_ring = uranus_rings.png #texture from Celestia</span></td><td class="lineno" valign="top"></td></tr>
